start=new Date('2022-10-19T00:00:00.000Z').valueOf();
sats=[{"MEAN_ANOMALY":"311.6113","COUNTRY_CODE":"US","PERIAPSIS":"538.671","TLE_LINE2":"2 51135  53.2167  96.3848 0001560  48.5013 311.6113 15.08838577 41847","LAUNCH_DATE":"2022-01-19","DECAY_DATE":null,"ECCENTRICITY":"0.00015600","APOAPSIS":"540.829","RCS_SIZE":"LARGE","REF_FRAME":"TEME","RA_OF_ASC_NODE":"96.3848","MEAN_MOTION_DDOT":"0.0000000000000","CLASSIFICATION_TYPE":"U","FILE":"3621750","MEAN_MOTION":"15.08838577","ELEMENT_SET_NO":"999","OBJECT_ID":"2022-005AH","ARG_OF_PERICENTER":"48.5013","EPOCH":"2022-10-18T18:24:16.810272","EPHEMERIS_TYPE":"0","OBJECT_NAME":"STARLINK-3363","INCLINATION":"53.2167","NORAD_CAT_ID":"51135","OBJECT_TYPE":"PAYLOAD","PERIOD":"95.438","CENTER_NAME":"EARTH","MEAN_MOTION_DOT":"0.00000862","BSTAR":"0.00007224700000","MEAN_ELEMENT_THEORY":"SGP4","REV_AT_EPOCH":"4184","TLE_LINE1":"1 51135U 22005AH  22291.76686123  .00000862  00000-0  72247-4 0  9991","TIME_SYSTEM":"UTC","GP_ID":"215529922","SITE":"AFETR","SEMIMAJOR_AXIS":"6917.885"},{"OBJECT_TYPE":"PAYLOAD","PERIOD":"95.437","CENTER_NAME":"EARTH","MEAN_MOTION_DOT":"-0.00003384","OBJECT_NAME":"STARLINK-3253","EPHEMERIS_TYPE":"0","EPOCH":"2022-10-18T18:25:39.276480","NORAD_CAT_ID":"51136","INCLINATION":"53.2168","SITE":"AFETR","SEMIMAJOR_AXIS":"6917.857","BSTAR":"-0.00019457000000","GP_ID":"215530681","TIME_SYSTEM":"UTC","TLE_LINE1":"1 51136U 22005AJ  22291.76781570 -.00003384  00000-0 -19457-3 0  9991","MEAN_ELEMENT_THEORY":"SGP4","REV_AT_EPOCH":"4184","DECAY_DATE":null,"LAUNCH_DATE":"2022-01-19","ECCENTRICITY":"0.00020910","MEAN_ANOMALY":"318.1119","TLE_LINE2":"2 51136  53.2168  96.3755 0002091  42.0034 318.1119 15.08847535 41840","PERIAPSIS":"538.276","COUNTRY_CODE":"US","FILE":"3621750","ELEMENT_SET_NO":"999","MEAN_MOTION":"15.08847535","OBJECT_ID":"2022-005AJ","CLASSIFICATION_TYPE":"U","ARG_OF_PERICENTER":"42.0034","REF_FRAME":"TEME","APOAPSIS":"541.169","RCS_SIZE":"LARGE","MEAN_MOTION_DDOT":"0.0000000000000","RA_OF_ASC_NODE":"96.3755"},{"BSTAR":"0.00011734000000","REV_AT_EPOCH":"4185","MEAN_ELEMENT_THEORY":"SGP4","TLE_LINE1":"1 51137U 22005AK  22291.75582301  .00001579  00000-0  11734-3 0  9994","TIME_SYSTEM":"UTC","GP_ID":"215528930","SITE":"AFETR","SEMIMAJOR_AXIS":"6917.911","EPOCH":"2022-10-18T18:08:23.108064","EPHEMERIS_TYPE":"0","OBJECT_NAME":"STARLINK-3180","INCLINATION":"53.2181","NORAD_CAT_ID":"51137","PERIOD":"95.438","OBJECT_TYPE":"PAYLOAD","MEAN_MOTION_DOT":"0.00001579","CENTER_NAME":"EARTH","APOAPSIS":"541.101","RCS_SIZE":"LARGE","REF_FRAME":"TEME","RA_OF_ASC_NODE":"96.4344","MEAN_MOTION_DDOT":"0.0000000000000","CLASSIFICATION_TYPE":"U","FILE":"3621750","ELEMENT_SET_NO":"999","OBJECT_ID":"2022-005AK","MEAN_MOTION":"15.08829858","ARG_OF_PERICENTER":"46.8361","MEAN_ANOMALY":"313.2791","COUNTRY_CODE":"US","PERIAPSIS":"538.452","TLE_LINE2":"2 51137  53.2181  96.4344 0001915  46.8361 313.2791 15.08829858 41851","LAUNCH_DATE":"2022-01-19","DECAY_DATE":null,"ECCENTRICITY":"0.00019150"},{"REF_FRAME":"TEME","RCS_SIZE":"LARGE","APOAPSIS":"540.885","MEAN_MOTION_DDOT":"0.0000000000000","RA_OF_ASC_NODE":"96.3803","CLASSIFICATION_TYPE":"U","FILE":"3621750","MEAN_MOTION":"15.08880761","ELEMENT_SET_NO":"999","OBJECT_ID":"2022-005AL","ARG_OF_PERICENTER":"31.1716","MEAN_ANOMALY":"328.9385","PERIAPSIS":"538.357","TLE_LINE2":"2 51138  53.2178  96.3803 0001827  31.1716 328.9385 15.08880761 41841","COUNTRY_CODE":"US","DECAY_DATE":null,"LAUNCH_DATE":"2022-01-19","ECCENTRICITY":"0.00018270","BSTAR":"-0.00062608000000","TIME_SYSTEM":"UTC","GP_ID":"215529180","REV_AT_EPOCH":"4184","MEAN_ELEMENT_THEORY":"SGP4","TLE_LINE1":"1 51138U 22005AL  22291.76317999 -.00010250  00000-0 -62608-3 0  9999","SITE":"AFETR","SEMIMAJOR_AXIS":"6917.756","OBJECT_NAME":"STARLINK-3177","EPOCH":"2022-10-18T18:18:58.751136","EPHEMERIS_TYPE":"0","INCLINATION":"53.2178","NORAD_CAT_ID":"51138","OBJECT_TYPE":"PAYLOAD","PERIOD":"95.435","MEAN_MOTION_DOT":"-0.00010250","CENTER_NAME":"EARTH"},{"RA_OF_ASC_NODE":"96.4634","MEAN_MOTION_DDOT":"0.0000000000000","RCS_SIZE":"LARGE","APOAPSIS":"540.960","REF_FRAME":"TEME","ARG_OF_PERICENTER":"38.7509","MEAN_MOTION":"15.08848288","FILE":"3621750","ELEMENT_SET_NO":"999","OBJECT_ID":"2022-005AM","CLASSIFICATION_TYPE":"U","COUNTRY_CODE":"US","TLE_LINE2":"2 51139  53.2192  96.4634 0001792  38.7509 321.3611 15.08848288 41853","PERIAPSIS":"538.480","MEAN_ANOMALY":"321.3611","ECCENTRICITY":"0.00017920","LAUNCH_DATE":"2022-01-19","DECAY_DATE":null,"TLE_LINE1":"1 51139U 22005AM  22291.74846081  .00000367  00000-0  41173-4 0  9998","REV_AT_EPOCH":"4185","MEAN_ELEMENT_THEORY":"SGP4","GP_ID":"215530422","TIME_SYSTEM":"UTC","BSTAR":"0.00004117300000","SEMIMAJOR_AXIS":"6917.855","SITE":"AFETR","NORAD_CAT_ID":"51139","INCLINATION":"53.2192","EPHEMERIS_TYPE":"0","EPOCH":"2022-10-18T17:57:47.013984","OBJECT_NAME":"STARLINK-3172","MEAN_MOTION_DOT":"0.00000367","CENTER_NAME":"EARTH","OBJECT_TYPE":"PAYLOAD","PERIOD":"95.437"},{"ARG_OF_PERICENTER":"51.1358","MEAN_MOTION":"15.08834541","FILE":"3621750","ELEMENT_SET_NO":"999","OBJECT_ID":"2022-005AN","CLASSIFICATION_TYPE":"U","RA_OF_ASC_NODE":"96.4056","MEAN_MOTION_DDOT":"0.0000000000000","APOAPSIS":"541.102","RCS_SIZE":"LARGE","REF_FRAME":"TEME","ECCENTRICITY":"0.00019370","LAUNCH_DATE":"2022-01-19","DECAY_DATE":null,"COUNTRY_CODE":"US","TLE_LINE2":"2 51140  53.2167  96.4056 0001937  51.1358 308.9807 15.08834541 41852","PERIAPSIS":"538.422","MEAN_ANOMALY":"308.9807","SEMIMAJOR_AXIS":"6917.897","SITE":"AFETR","TLE_LINE1":"1 51140U 22005AN  22291.75950068 -.00000544  00000-0 -16078-4 0  9997","REV_AT_EPOCH":"4185","MEAN_ELEMENT_THEORY":"SGP4","GP_ID":"215530182","TIME_SYSTEM":"UTC","BSTAR":"-0.00001607800000","MEAN_MOTION_DOT":"-0.00000544","CENTER_NAME":"EARTH","PERIOD":"95.438","OBJECT_TYPE":"PAYLOAD","NORAD_CAT_ID":"51140","INCLINATION":"53.2167","EPHEMERIS_TYPE":"0","EPOCH":"2022-10-18T18:13:40.858752","OBJECT_NAME":"STARLINK-3175"},{"PERIOD":"95.438","OBJECT_TYPE":"PAYLOAD","MEAN_MOTION_DOT":"0.00000295","CENTER_NAME":"EARTH","EPHEMERIS_TYPE":"0","EPOCH":"2022-10-18T17:47:10.758336","OBJECT_NAME":"STARLINK-3179","NORAD_CAT_ID":"51141","INCLINATION":"53.2172","SITE":"AFETR","SEMIMAJOR_AXIS":"6917.883","BSTAR":"0.00003665600000","TLE_LINE1":"1 51141U 22005AP  22291.74109674  .00000295  00000-0  36656-4 0  9991","REV_AT_EPOCH":"4185","MEAN_ELEMENT_THEORY":"SGP4","GP_ID":"215529430","TIME_SYSTEM":"UTC","LAUNCH_DATE":"2022-01-19","DECAY_DATE":null,"ECCENTRICITY":"0.00019690","MEAN_ANOMALY":"320.2703","COUNTRY_CODE":"US","TLE_LINE2":"2 51141  53.2172  96.4978 0001969  39.8434 320.2703 15.08839022 41856","PERIAPSIS":"538.386","ELEMENT_SET_NO":"999","FILE":"3621750","MEAN_MOTION":"15.08839022","OBJECT_ID":"2022-005AP","CLASSIFICATION_TYPE":"U","ARG_OF_PERICENTER":"39.8434","APOAPSIS":"541.111","RCS_SIZE":"LARGE","REF_FRAME":"TEME","RA_OF_ASC_NODE":"96.4978","MEAN_MOTION_DDOT":"0.0000000000000"},{"MEAN_MOTION_DDOT":"0.0000000000000","RA_OF_ASC_NODE":"86.5229","REF_FRAME":"TEME","APOAPSIS":"541.187","RCS_SIZE":"LARGE","ARG_OF_PERICENTER":"42.1079","CLASSIFICATION_TYPE":"U","OBJECT_ID":"2022-005AQ","FILE":"3621750","ELEMENT_SET_NO":"999","MEAN_MOTION":"15.08841338","PERIAPSIS":"538.295","TLE_LINE2":"2 51142  53.2178  86.5229 0002090  42.1079 318.0073 15.08841338 41982","COUNTRY_CODE":"US","MEAN_ANOMALY":"318.0073","ECCENTRICITY":"0.00020900","DECAY_DATE":null,"LAUNCH_DATE":"2022-01-19","TIME_SYSTEM":"UTC","GP_ID":"215529680","MEAN_ELEMENT_THEORY":"SGP4","REV_AT_EPOCH":"4198","TLE_LINE1":"1 51142U 22005AQ  22291.73561231 -.00000019  00000-0  16910-4 0  9998","BSTAR":"0.00001691000000","SEMIMAJOR_AXIS":"6917.876","SITE":"AFETR","INCLINATION":"53.2178","NORAD_CAT_ID":"51142","OBJECT_NAME":"STARLINK-3369","EPOCH":"2022-10-18T17:39:16.903584","EPHEMERIS_TYPE":"0","MEAN_MOTION_DOT":"-0.00000019","CENTER_NAME":"EARTH","OBJECT_TYPE":"PAYLOAD","PERIOD":"95.437"},{"DECAY_DATE":null,"LAUNCH_DATE":"2022-01-19","ECCENTRICITY":"0.00016770","MEAN_ANOMALY":"304.2169","TLE_LINE2":"2 51143  53.2154 106.2692 0001677  55.8982 304.2169 15.08830150 41719","PERIAPSIS":"538.615","COUNTRY_CODE":"US","OBJECT_ID":"2022-005AR","FILE":"3621750","ELEMENT_SET_NO":"999","MEAN_MOTION":"15.08830150","CLASSIFICATION_TYPE":"U","ARG_OF_PERICENTER":"55.8982","REF_FRAME":"TEME","RCS_SIZE":"LARGE","APOAPSIS":"540.936","MEAN_MOTION_DDOT":"0.0000000000000","RA_OF_ASC_NODE":"106.2692","PERIOD":"95.438","OBJECT_TYPE":"PAYLOAD","MEAN_MOTION_DOT":"-0.00000834","CENTER_NAME":"EARTH","OBJECT_NAME":"STARLINK-3184","EPHEMERIS_TYPE":"0","EPOCH":"2022-10-18T19:00:03.750048","NORAD_CAT_ID":"51143","INCLINATION":"53.2154","SITE":"AFETR","SEMIMAJOR_AXIS":"6917.910","BSTAR":"-0.00003433900000","GP_ID":"215529923","TIME_SYSTEM":"UTC","TLE_LINE1":"1 51143U 22005AR  22291.79171007 -.00000834  00000-0 -34339-4 0  9994","MEAN_ELEMENT_THEORY":"SGP4","REV_AT_EPOCH":"4171"},{"INCLINATION":"53.2191","NORAD_CAT_ID":"51144","OBJECT_NAME":"STARLINK-3185","EPOCH":"2022-10-18T17:52:28.887456","EPHEMERIS_TYPE":"0","MEAN_MOTION_DOT":"0.00000992","CENTER_NAME":"EARTH","PERIOD":"95.438","OBJECT_TYPE":"PAYLOAD","TIME_SYSTEM":"UTC","GP_ID":"215530682","MEAN_ELEMENT_THEORY":"SGP4","REV_AT_EPOCH":"4185","TLE_LINE1":"1 51144U 22005AS  22291.74477879  .00000992  00000-0  80427-4 0  9998","BSTAR":"0.00008042700000","SEMIMAJOR_AXIS":"6917.895","SITE":"AFETR","PERIAPSIS":"538.519","TLE_LINE2":"2 51144  53.2191  96.4839 0001794  46.6549 313.4592 15.08835105 41853","COUNTRY_CODE":"US","MEAN_ANOMALY":"313.4592","ECCENTRICITY":"0.00017940","DECAY_DATE":null,"LAUNCH_DATE":"2022-01-19","MEAN_MOTION_DDOT":"0.0000000000000","RA_OF_ASC_NODE":"96.4839","REF_FRAME":"TEME","RCS_SIZE":"LARGE","APOAPSIS":"541.001","ARG_OF_PERICENTER":"46.6549","CLASSIFICATION_TYPE":"U","FILE":"3621750","ELEMENT_SET_NO":"999","MEAN_MOTION":"15.08835105","OBJECT_ID":"2022-005AS"}];
